NORAD_CAT_ID,OBJECT_NAME,OBJECT_TYPE,EPOCH,MEAN_MOTION,ECCENTRICITY,INCLINATION,RA_OF_ASC_NODE,ARG_OF_PERICENTER,MEAN_ANOMALY,BSTAR,MEAN_MOTION_DOT,MEAN_MOTION_DDOT,TLE_LINE0,TLE_LINE1,TLE_LINE2,SEMIMAJOR_AXIS,PERIOD,APOGEE,PERIGEE,DECAYED
52582.0,STARLINK-3886,PAYLOAD,2023-06-05 23:18:44,15.08860198,1.72e-05,53.2165,322.9421,78.7843,281.3169,0.00073531,0.00011441,0.0,0 STARLINK-3886,1 52582U 22051AY  23156.97134940  .00011441  00000-0  73531-3 0  9999,2 52582  53.2165 322.9421 0000172  78.7843 281.3169 15.08860198 59523,6917.819,95.436,539.803,539.565,0.0
52582.0,STARLINK-3886,PAYLOAD,2023-06-06 10:26:27,15.08839222,2.61e-05,53.216,320.8606,48.7748,311.3266,0.00023627,3.475e-05,0.0,0 STARLINK-3886,1 52582U 22051AY  23157.43503558  .00003475  00000-0  23627-3 0  9995,2 52582  53.2160 320.8606 0000261  48.7748 311.3266 15.08839222 59593,6917.883,95.438,539.928,539.567,0.0
52582.0,STARLINK-3886,PAYLOAD,2023-06-06 13:37:13,15.08842099,7.5e-06,53.2163,320.266,338.5754,21.5235,0.00045451,6.954e-05,0.0,0 STARLINK-3886,1 52582U 22051AY  23157.56751516  .00006954  00000-0  45451-3 0  9992,2 52582  53.2163 320.2660 0000075 338.5754  21.5235 15.08842099 59547,6917.874,95.437,539.791,539.687,0.0
52582.0,STARLINK-3886,PAYLOAD,2023-06-06 15:12:36,15.08842738,2.12e-05,53.2162,319.9689,76.4057,283.6959,0.0012553,0.00019748,0.0,0 STARLINK-3886,1 52582U 22051AY  23157.63375612  .00019748  00000-0  12553-2 0  9990,2 52582  53.2162 319.9689 0000212  76.4057 283.6959 15.08842738 59554,6917.872,95.437,539.884,539.59,0.0
52582.0,STARLINK-3886,PAYLOAD,2023-06-07 13:28:00,15.08843243,5.49e-05,53.2168,315.8081,69.7065,290.3986,0.00063068,9.765e-05,0.0,0 STARLINK-3886,1 52582U 22051AY  23158.56111936  .00009765  00000-0  63068-3 0  9996,2 52582  53.2168 315.8081 0000549  69.7065 290.3986 15.08843243 59690,6917.87,95.437,540.115,539.356,0.0
52582.0,STARLINK-3886,PAYLOAD,2023-06-07 18:14:10,15.08841263,4.45e-05,53.2162,314.9154,60.6671,299.4365,0.00031739,4.767e-05,0.0,0 STARLINK-3886,1 52582U 22051AY  23158.75983900  .00004767  00000-0  31739-3 0  9992,2 52582  53.2162 314.9154 0000445  60.6671 299.4365 15.08841263 59795,6917.877,95.437,540.049,539.434,0.0
52582.0,STARLINK-3886,PAYLOAD,2023-06-07 19:49:33,15.08844638,2.78e-05,53.2166,314.6175,60.5545,299.5475,0.00029585,4.425e-05,0.0,0 STARLINK-3886,1 52582U 22051AY  23158.82607756  .00004425  00000-0  29585-3 0  9999,2 52582  53.2166 314.6175 0000278  60.5545 299.5475 15.08844638 59738,6917.866,95.437,539.924,539.539,0.0
52582.0,STARLINK-3886,PAYLOAD,2023-06-08 03:46:29,15.08839208,5.42e-05,53.2159,313.1314,58.6479,301.4566,0.00019672,2.845e-05,0.0,0 STARLINK-3886,1 52582U 22051AY  23159.15728070  .00002845  00000-0  19672-3 0  9999,2 52582  53.2159 313.1314 0000542  58.6479 301.4566 15.08839208 59783,6917.883,95.438,540.123,539.373,0.0
52582.0,STARLINK-3886,PAYLOAD,2023-06-08 19:40:19,15.08851464,3.11e-05,53.2166,310.1538,107.5909,252.5117,0.00034249,5.169e-05,0.0,0 STARLINK-3886,1 52582U 22051AY  23159.81967590  .00005169  00000-0  34249-3 0  9993,2 52582  53.2166 310.1538 0000311 107.5909 252.5117 15.08851464 59957,6917.845,95.437,539.925,539.495,0.0
52582.0,STARLINK-3886,PAYLOAD,2023-06-09 09:58:48,15.08837685,4.3e-05,53.2165,307.4814,31.3804,328.7214,0.0001048,1.381e-05,0.0,0 STARLINK-3886,1 52582U 22051AY  23160.41584162  .00001381  00000-0  10480-3 0  9994,2 52582  53.2165 307.4814 0000430  31.3804 328.7214 15.08837685 60047,6917.887,95.438,540.05,539.455,0.0
52582.0,STARLINK-3886,PAYLOAD,2023-06-09 16:20:21,15.08845,6e-05,53.2166,306.2919,66.7043,293.4012,0.00026818,3.984e-05,0.0,0 STARLINK-3886,1 52582U 22051AY  23160.68080132  .00003984  00000-0  26818-3 0  9994,2 52582  53.2166 306.2919 0000600  66.7043 293.4012 15.08845000 60018,6917.865,95.437,540.145,539.315,0.0
52582.0,STARLINK-3886,PAYLOAD,2023-06-10 09:49:35,15.08843029,4.22e-05,53.2162,303.0206,53.0908,307.0123,0.00024658,3.639e-05,0.0,0 STARLINK-3886,1 52582U 22051AY  23161.40944279  .00003639  00000-0  24658-3 0  9993,2 52582  53.2162 303.0206 0000422  53.0908 307.0123 15.08843029 60125,6917.871,95.437,540.028,539.444,0.0
52582.0,STARLINK-3886,PAYLOAD,2023-06-10 14:35:45,15.08844713,4.27e-05,53.2155,302.1273,54.0518,306.0514,0.00026248,3.893e-05,0.0,0 STARLINK-3886,1 52582U 22051AY  23161.60816219  .00003893  00000-0  26248-3 0  9996,2 52582  53.2155 302.1273 0000427  54.0518 306.0514 15.08844713 60151,6917.866,95.437,540.026,539.436,0.0
52582.0,STARLINK-3886,PAYLOAD,2023-06-10 16:11:08,15.08846579,4.9e-05,53.2165,301.8313,58.6288,301.4753,0.00027183,4.042e-05,0.0,0 STARLINK-3886,1 52582U 22051AY  23161.67440157  .00004042  00000-0  27183-3 0  9993,2 52582  53.2165 301.8313 0000490  58.6288 301.4753 15.08846579 60232,6917.86,95.437,540.064,539.386,0.0
52582.0,STARLINK-3886,PAYLOAD,2023-06-11 16:01:55,15.08844215,5.09e-05,53.2158,297.3689,62.3554,297.7489,0.00015098,2.116e-05,0.0,0 STARLINK-3886,1 52582U 22051AY  23162.66800096  .00002116  00000-0  15098-3 0  9997,2 52582  53.2158 297.3689 0000509  62.3554 297.7489 15.08844215 60382,6917.868,95.437,540.085,539.38,0.0
52582.0,STARLINK-3886,PAYLOAD,2023-06-11 19:12:41,15.08851384,4.51e-05,53.2162,296.7749,70.0784,290.0257,0.00028466,4.247e-05,0.0,0 STARLINK-3886,1 52582U 22051AY  23162.80047819  .00004247  00000-0  28466-3 0  9999,2 52582  53.2162 296.7749 0000451  70.0784 290.0257 15.08851384 60333,6917.846,95.437,540.023,539.399,0.0
52582.0,STARLINK-3886,PAYLOAD,2023-06-12 07:55:46,15.08844603,0.0001169,53.2166,294.3959,73.8295,286.2826,0.00015334,2.154e-05,0.0,0 STARLINK-3886,1 52582U 22051AY  23163.33040200  .00002154  00000-0  15334-3 0  9990,2 52582  53.2166 294.3959 0001169  73.8295 286.2826 15.08844603 60413,6917.866,95.437,540.54,538.923,0.0
52582.0,STARLINK-3886,PAYLOAD,2023-06-12 15:52:42,15.08842885,0.0001063,53.2167,292.9091,81.873,278.2383,9.1474e-05,1.168e-05,0.0,0 STARLINK-3886,1 52582U 22051AY  23163.66160141  .00001168  00000-0  91474-4 0  9997,2 52582  53.2167 292.9091 0001063  81.8730 278.2383 15.08842885 60533,6917.872,95.437,540.472,539.001,0.0
52582.0,STARLINK-3886,PAYLOAD,2023-06-13 01:25:01,15.08838635,5.01e-05,53.2166,291.1277,122.5668,237.5373,7.115e-05,8.45e-06,0.0,0 STARLINK-3886,1 52582U 22051AY  23164.05904370  .00000845  00000-0  71150-4 0  9991,2 52582  53.2166 291.1277 0000501 122.5668 237.5373 15.08838635 60522,6917.885,95.438,540.096,539.403,0.0
52582.0,STARLINK-3886,PAYLOAD,2023-06-14 07:37:21,15.08838699,6.62e-05,53.2172,285.4773,67.6092,292.497,0.00014181,1.97e-05,0.0,0 STARLINK-3886,1 52582U 22051AY  23165.31760774  .00001970  00000-0  14181-3 0  9999,2 52582  53.2172 285.4773 0000662  67.6092 292.4970 15.08838699 60785,6917.884,95.438,540.207,539.291,0.0
52582.0,STARLINK-3886,PAYLOAD,2023-06-15 13:49:40,15.08840649,7.27e-05,53.2164,279.8267,73.3212,286.7859,3.7589e-05,3.11e-06,0.0,0 STARLINK-3886,1 52582U 22051AY  23166.57616858  .00000311  00000-0  37589-4 0  9997,2 52582  53.2164 279.8267 0000727  73.3212 286.7859 15.08840649 60905,6917.878,95.438,540.246,539.24,0.0
52582.0,STARLINK-3886,PAYLOAD,2023-06-15 17:00:26,15.0884853,4.84e-05,53.2165,279.2278,103.4125,256.6921,0.00014607,2.038e-05,0.0,0 STARLINK-3886,1 52582U 22051AY  23166.70864349  .00002038  00000-0  14607-3 0  9995,2 52582  53.2165 279.2278 0000484 103.4125 256.6921 15.08848530 60992,6917.854,95.437,540.054,539.384,0.0
52582.0,STARLINK-3886,PAYLOAD,2023-06-16 00:57:22,15.08843867,5.27e-05,53.2168,277.7381,131.2316,228.8721,9.088e-05,1.159e-05,0.0,0 STARLINK-3886,1 52582U 22051AY  23167.03984576  .00001159  00000-0  90880-4 0  9998,2 52582  53.2168 277.7381 0000527 131.2316 228.8721 15.08843867 61046,6917.869,95.437,540.098,539.369,0.0
52582.0,STARLINK-3886,PAYLOAD,2023-06-16 13:40:26,15.08859546,5.28e-05,53.2161,275.3651,67.0724,293.0324,0.00032279,4.856e-05,0.0,0 STARLINK-3886,1 52582U 22051AY  23167.56975625  .00004856  00000-0  32279-3 0  9995,2 52582  53.2161 275.3651 0000528  67.0724 293.0324 15.08859546 61058,6917.821,95.436,540.051,539.32,0.0
52582.0,STARLINK-3886,PAYLOAD,2023-06-16 16:51:12,15.08864441,7.36e-05,53.2153,274.7689,76.2596,283.8478,0.00039022,5.932e-05,0.0,0 STARLINK-3886,1 52582U 22051AY  23167.70223260  .00005932  00000-0  39022-3 0  9991,2 52582  53.2153 274.7689 0000736  76.2596 283.8478 15.08864441 61072,6917.806,95.436,540.18,539.162,0.0
52582.0,STARLINK-3886,PAYLOAD,2023-06-17 00:48:09,15.08836347,5.93e-05,53.2168,273.2824,97.4937,262.6123,1.3547e-05,-7.2e-07,0.0,0 STARLINK-3886,1 52582U 22051AY  23168.03344565 -.00000072  00000-0  13547-4 0  9996,2 52582  53.2168 273.2824 0000593  97.4937 262.6123 15.08836347 61197,6917.892,95.438,540.167,539.346,0.0
52582.0,STARLINK-3886,PAYLOAD,2023-06-17 13:31:15,15.08825286,0.0001063,53.2157,270.9045,94.955,265.1563,-0.00012851,-2.332e-05,0.0,0 STARLINK-3886,1 52582U 22051AY  23168.56337558 -.00002332  00000-0 -12851-3 0  9996,2 52582  53.2157 270.9045 0001063  94.9550 265.1563 15.08825286 61208,6917.925,95.438,540.526,539.055,0.0
52582.0,STARLINK-3886,PAYLOAD,2023-06-17 16:42:02,15.08824499,6.76e-05,53.2166,270.3081,111.4312,248.6752,-0.00019336,-3.362e-05,0.0,0 STARLINK-3886,1 52582U 22051AY  23168.69585657 -.00003362  00000-0 -19336-3 0  9994,2 52582  53.2166 270.3081 0000676 111.4312 248.6752 15.08824499 61292,6917.928,95.439,540.26,539.325,0.0
52582.0,STARLINK-3886,PAYLOAD,2023-06-18 07:00:29,15.08841183,5.26e-05,53.2163,267.634,103.3769,256.7282,6.3623e-05,7.25e-06,0.0,0 STARLINK-3886,1 52582U 22051AY  23169.29201107  .00000725  00000-0  63623-4 0  9993,2 52582  53.2163 267.6340 0000526 103.3769 256.7282 15.08841183 61383,6917.877,95.437,540.106,539.378,0.0
52582.0,STARLINK-3886,PAYLOAD,2023-06-18 13:22:02,15.08849546,4.5e-05,53.216,266.4449,100.6254,259.4789,0.00038155,5.792e-05,0.0,0 STARLINK-3886,1 52582U 22051AY  23169.55696924  .00005792  00000-0  38155-3 0  9997,2 52582  53.2160 266.4449 0000450 100.6254 259.4789 15.08849546 61352,6917.851,95.437,540.028,539.405,0.0
